ONEWEB-0271             
1 48989U 21060Y   24281.46756545  .00000067  00000+0  14207-3 0  9995
2 48989  87.9160 351.8039 0002105 106.6369 253.4994 13.16596427158384
ONEWEB-0272             
1 48990U 21060Z   24281.26173211  .00000174  00000+0  42090-3 0  9998
2 48990  87.9162 351.8747 0001983 105.7511 254.3839 13.16596517158306
ONEWEB-0273             
1 48991U 21060AA  24281.43589823  .00000165  00000+0  39688-3 0  9997
2 48991  87.9161 351.8265 0001998  97.5053 262.6304 13.16596060158308
ONEWEB-0274             
1 48992U 21060AB  24281.23324595  .00000113  00000+0  26213-3 0  9992
2 48992  87.9167 351.8874 0001788 116.8099 243.3215 13.16595222158310
ONEWEB-0275             
1 48993U 21060AC  24281.22215925  .00000042  00000+0  75793-4 0  9997
2 48993  87.9160 351.8640 0001946 102.2681 257.8667 13.16595215158242
ONEWEB-0276             
1 48994U 21060AD  24281.48338540  .00000231  00000+0  57068-3 0  9999
2 48994  87.9161 351.8082 0002084  98.4137 261.7230 13.16597582158294
ONEWEB-0277             
1 48995U 21060AE  24281.49605413  .00000289  00000+0  72196-3 0  9999
2 48995  87.9160 351.8441 0002292 105.2575 254.8809 13.16598579158288
ONEWEB-0278             
1 48996U 21060AF  24281.18256039  .00000149  00000+0  35682-3 0  9996
2 48996  87.9162 351.8651 0001803  90.0818 270.0519 13.16596806158371
ONEWEB-0279             
1 48997U 21060AG  24281.49447488  .00000143  00000+0  34089-3 0  9995
2 48997  87.9160 351.8005 0002163 107.3091 252.8277 13.16597576158349
ONEWEB-0280             
1 48998U 21060AH  24281.43266604 -.00000286  00000+0 -78206-3 0  9998
2 48998  87.9158 351.8152 0002481 100.5237 259.6174 13.16598853158272
ONEWEB-0281             
1 48999U 21060AJ  24281.21107026  .00000122  00000+0  28522-3 0  9990
2 48999  87.9160 351.8603 0001679 104.6225 255.5092 13.16597160158316
ONEWEB-0282             
1 49000U 21060AK  24281.46914152  .00000095  00000+0  21390-3 0  9992
2 49000  87.9159 351.8253 0002168  99.4652 260.6724 13.16597217158321
ONEWEB-0283             
1 49001U 21060AL  24281.23006219  .00000051  00000+0  99719-4 0  9997
2 49001  87.9162 351.8782 0002030 105.9835 254.1520 13.16597373158300
ONEWEB-0284             
1 49002U 21060AM  24281.22373107  .00000042  00000+0  76181-4 0  9998
2 49002  87.9155 351.8567 0001906  95.0406 265.0942 13.16594110158280
ONEWEB-0285             
1 49075U 21075A   24281.46302165  .00000876  00000+0  23999-2 0  9998
2 49075  87.8846 113.6917 0001384  94.5679 265.5607 13.12438120154187
ONEWEB-0286             
1 49076U 21075B   24281.43448756  .00000087  00000+0  20573-3 0  9993
2 49076  87.8846 113.6967 0001396  77.8026 282.3259 13.12441561153537
ONEWEB-0287             
1 49077U 21075C   24281.88151174 -.00000098  00000+0 -28545-3 0  9999
2 49077  87.9097 128.8347 0001694  71.7356 288.3960 13.17648692153306
ONEWEB-0288             
1 49078U 21075D   24281.49695316 -.00000360  00000+0 -10370-2 0  9996
2 49078  87.8844 113.6871 0001658  79.4450 280.6865 13.12444129154168
ONEWEB-0289             
1 49079U 21075E   24281.83429550  .00000074  00000+0  15832-3 0  9999
2 49079  87.9099 128.8725 0001719  82.2404 277.8923 13.17649616153870
ONEWEB-0290             
1 49080U 21075F   24281.13398487  .00000083  00000+0  17943-3 0  9993
2 49080  87.9100 128.9717 0002347  81.7743 278.3654 13.17648554152220
ONEWEB-0291             
1 49081U 21075G   24281.04286730  .00000109  00000+0  24822-3 0  9994
2 49081  87.9093 129.0056 0001698  70.7450 289.3865 13.17649947152202
ONEWEB-0293             
1 49082U 21075H   24281.82753045  .00000106  00000+0  24086-3 0  9998
2 49082  87.9099 128.8688 0001786  74.5940 285.5388 13.17652244153316
ONEWEB-0294             
1 49083U 21075J   24281.80838677 -.00001135  00000+0 -31902-2 0  9991
2 49083  87.8833 113.6247 0002166  69.2461 290.8900 13.12445359154588
ONEWEB-0295             
1 49084U 21075K   24281.82669538  .00003162  00000+0  81095-2 0  9990
2 49084  87.9093 128.8472 0001340  67.5345 292.5928 13.17630647153254
ONEWEB-0296             
1 49085U 21075L   24281.48395854 -.00000395  00000+0 -11337-2 0  9999
2 49085  87.8845 113.6920 0001716  59.2252 300.9046 13.12440283153559
ONEWEB-0297             
1 49086U 21075M   24281.81974599  .00000218  00000+0  57124-3 0  9993
2 49086  87.8857 113.6407 0001505  82.9988 277.1311 13.12444426155193
ONEWEB-0298             
1 49087U 21075N   24281.83092451  .00000080  00000+0  17169-3 0  9996
2 49087  87.9098 128.8641 0001449  80.3339 279.7956 13.17652144153317
ONEWEB-0299             
1 49088U 21075P   24281.83260575  .00000101  00000+0  22759-3 0  9996
2 49088  87.9095 128.8284 0001385  77.9981 282.1306 13.17649401153276
ONEWEB-0300             
1 49089U 21075Q   24281.81161606 -.00000047  00000+0 -16583-3 0  9999
2 49089  87.8846 113.6217 0001551  98.3382 261.7923 13.12441847155218
ONEWEB-0301             
1 49090U 21075R   24281.49044987 -.00000468  00000+0 -13360-2 0  9993
2 49090  87.8844 113.6896 0001581  95.4092 264.7217 13.12440497153543
ONEWEB-0302             
1 49091U 21075S   24281.78241842 -.00000146  00000+0 -44164-3 0  9995
2 49091  87.8845 113.6308 0001695  77.4498 282.6820 13.12439796154561
ONEWEB-0304             
1 49092U 21075T   24281.04793075  .00000098  00000+0  21854-3 0  9990
2 49092  87.9097 129.0050 0001524  73.2719 286.8579 13.17650310152172
ONEWEB-0305             
1 49093U 21075U   24281.34492783  .00000042  00000+0  75901-4 0  9998
2 49093  87.9093 128.9302 0001313  69.7399 290.3873 13.17652187152246
ONEWEB-0308             
1 49094U 21075V   24281.77594071  .00000181  00000+0  46879-3 0  9994
2 49094  87.8845 113.6302 0001570  86.6903 273.4405 13.12443239154578
ONEWEB-0309             
1 49095U 21075W   24281.34829797  .00000048  00000+0  89168-4 0  9995
2 49095  87.9100 128.9373 0002028  70.6703 289.4648 13.17648519152219
ONEWEB-0310             
1 49096U 21075X   24281.48559234 -.00000381  00000+0 -10934-2 0  9992
2 49096  87.8854 113.7056 0001723  81.9694 278.1630 13.12443211154169
ONEWEB-0311             
1 49097U 21075Y   24281.81066106  .00000142  00000+0  33236-3 0  9995
2 49097  87.9099 128.8464 0001245  70.8217 289.3049 13.17649443153324
ONEWEB-0312             
1 49098U 21075Z   24281.14241601 -.00000135  00000+0 -38024-3 0  9991
2 49098  87.9100 129.0111 0001845  66.5768 293.5557 13.17650497152218
ONEWEB-0313             
1 49099U 21075AA  24281.87900297  .00000147  00000+0  34510-3 0  9992
2 49099  87.9096 128.8676 0001586  72.3153 287.8151 13.17649044153304
ONEWEB-0314             
1 49100U 21075AB  24281.34154932  .00000098  00000+0  22048-3 0  9992
2 49100  87.9095 128.9281 0001582  66.5989 293.5309 13.17651174152201
ONEWEB-0315             
1 49101U 21075AC  24281.00222672  .00000418  00000+0  11261-2 0  9993
2 49101  87.8845 113.7774 0001150  84.1222 276.0037 13.12443888154088
ONEWEB-0316             
1 49102U 21075AD  24281.44891460  .00000050  00000+0  93563-4 0  9998
2 49102  87.9054  98.4135 0001456  85.3833 274.7466 13.18685011156807
ONEWEB-0317             
1 49103U 21075AE  24280.99573707  .00001511  00000+0  41653-2 0  9993
2 49103  87.8844 113.7897 0001737  77.4808 282.6514 13.12442412154109
ONEWEB-0318             
1 49104U 21075AF  24281.74925720  .00000170  00000+0  39747-3 0  9996
2 49104  87.9051  98.3439 0001380  86.0901 274.0389 13.18685648156793
ONEWEB-0319             
1 49105U 21075AG  24281.81235122  .00000095  00000+0  21035-3 0  9992
2 49105  87.9100 128.8715 0001194  67.7910 292.3348 13.17648861153299
ONEWEB-0323             
1 49106U 21075AH  24280.98600824  .00000447  00000+0  12057-2 0  9999
2 49106  87.8847 113.7783 0001454  77.8200 282.3092 13.12443877153467
ONEWEB-0329             
1 49107U 21075AJ  24281.51705310 -.00000045  00000+0 -14817-3 0  9999
2 49107  87.9099 128.9343 0001532  73.5607 286.5693 13.17647940152249
ONEWEB-0330             
1 49108U 21075AK  24281.13905014  .00000025  00000+0  31621-4 0  9990
2 49108  87.9099 129.0110 0001742  71.6016 288.5304 13.17648712152238
ONEWEB-0292             
1 49186U 21083A   24281.82108013  .00000602  00000+0  16135-2 0  9997
2 49186  87.8865  83.0834 0001924 104.0915 256.0428 13.13471134151174
ONEWEB-0303             
1 49187U 21083B   24281.44261337 -.00001300  00000+0 -33317-2 0  9994
2 49187  87.9058  98.4059 0001269  86.3861 273.7417 13.18671484148561
ONEWEB-0306             
1 49188U 21083C   24281.43311496  .00000039  00000+0  65838-4 0  9997
2 49188  87.9053  98.3945 0001799  86.5230 273.6107 13.18685922148602
ONEWEB-0307             
1 49189U 21083D   24281.43462695  .00000287  00000+0  75127-3 0  9992
2 49189  87.8868  83.1618 0001859  84.4120 275.7221 13.13472372149831
ONEWEB-0320             
1 49190U 21083E   24281.74293775  .00000148  00000+0  34290-3 0  9991
2 49190  87.9055  98.3581 0001660  87.6788 272.4534 13.18685091149889
ONEWEB-0321             
1 49191U 21083F   24281.55581587  .00000116  00000+0  25369-3 0  9994
2 49191  87.9275  37.2913 0001906 100.8824 259.2524 13.20771504155301
ONEWEB-0322             
1 49192U 21083G   24281.43066121  .00000149  00000+0  37379-3 0  9994
2 49192  87.8870  83.1517 0002040  92.3921 267.7442 13.13469079149821
ONEWEB-0324             
1 49193U 21083H   24281.42521389  .00000051  00000+0  97008-4 0  9994
2 49193  87.9055  98.4030 0001585  77.3690 282.7619 13.18686657148589
ONEWEB-0325             
1 49194U 21083J   24281.42995033  .00000022  00000+0  24135-4 0  9995
2 49194  87.9056  98.4171 0001663  89.0758 271.0565 13.18685428148596
ONEWEB-0326             
1 49195U 21083K   24281.74769334  .00000128  00000+0  29180-3 0  9995
2 49195  87.9053  98.3495 0001146  80.8999 279.2263 13.18687103149907
ONEWEB-0327             
1 49196U 21083L   24281.44339208  .00000048  00000+0  89192-4 0  9997
2 49196  87.9055  98.4356 0001236  90.7780 269.3493 13.18693625149883
